OBJECT_NAME,OBJECT_ID,EPOCH,MEAN_MOTION,ECCENTRICITY,INCLINATION,RA_OF_ASC_NODE,ARG_OF_PERICENTER,MEAN_ANOMALY,EPHEMERIS_TYPE,CLASSIFICATION_TYPE,NORAD_CAT_ID,ELEMENT_SET_NO,REV_AT_EPOCH,BSTAR,MEAN_MOTION_DOT,MEAN_MOTION_DDOT
2022-019D,2022-019D,2026-06-12T20:31:27.831072,15.70444850,.0005527,97.3670,256.1054,155.1956,204.9573,0,U,51827,999,23902,.65599E-3,.80742E-3,0
2022-019J,2022-019J,2026-06-12T20:42:32.950368,15.20417387,.0007055,97.3436,226.7847,239.3909,120.6632,0,U,51832,999,23714,.32217E-4,.635E-5,0
2022-023F,2022-023F,2026-06-12T20:42:02.278368,15.17978616,.0129491,63.4453,288.1826,342.5795,17.0894,0,U,51951,999,23705,.61529E-3,.15451E-3,0
CZ-4C R/B,2022-027B,2026-06-12T20:11:44.278080,13.65479860,.0232177,63.3943,70.4930,22.6416,338.4664,0,U,52085,999,21144,.32087E-4,-.64E-6,0
MERIDIAN 10,2022-030A,2026-06-11T11:41:25.319040,2.00614267,.67821757,62.6777,141.4098,272.8584,17.6673,0,U,52145,999,3091,0,.24E-5,0
OMNI-L1,2022-033A,2026-06-12T19:01:04.685376,14.82734370,.0003956,97.8397,243.0550,307.8039,52.2816,0,U,52157,999,22680,.24558E-3,.1931E-4,0
ENMAP,2022-033C,2026-06-12T19:46:19.153920,14.74983994,.0001386,97.9792,246.1355,82.6492,277.4875,0,U,52159,999,22601,.43081E-4,.24E-5,0
ARCSAT-1,2022-033E,2026-06-12T05:31:41.018304,15.53509655,.00044473,97.2756,255.4301,198.4115,161.6978,0,U,52161,999,23493,.22070109E-3,.13928E-3,0
GLOBAL-18,2022-034B,2026-06-11T15:09:07.298208,15.46043673,.0003087,52.9819,283.1883,249.2112,110.8562,0,U,52196,999,23610,.45571E-3,.22262E-3,0
GAOFEN-3 03,2022-035A,2026-06-12T20:36:45.235296,14.42214036,.0001207,98.4063,172.5016,101.6579,258.4747,0,U,52200,999,22022,-.22473E-4,-.117E-5,0
DAQI-1,2022-039A,2026-06-12T21:20:52.755072,14.57674831,.0002285,98.1477,102.8300,275.2770,84.8168,0,U,52257,999,22131,.40193E-4,.138E-5,0
BRO-6,2022-047AE,2026-06-12T19:31:25.097952,15.50267026,.0005401,97.3403,254.7853,93.1899,266.9971,0,U,52422,999,23047,.68147E-3,.38609E-3,0
JILIN-1 GAOFEN 3D27,2022-048B,2026-06-12T20:01:36.937056,15.74370663,.0001473,97.5704,277.3785,63.2043,296.9372,0,U,52444,999,22879,.7926E-3,.115557E-2,0
JILIN-1 GAOFEN 3D28,2022-048C,2026-06-12T20:12:26.328096,15.77261312,.0000863,97.5641,277.5192,152.6057,207.5254,0,U,52445,999,22884,.84487E-3,.1401E-2,0
VIGORIDE-3,2022-057AE,2026-06-12T19:50:47.082048,15.27235873,.0009392,97.6592,303.6859,133.7386,226.4631,0,U,52760,999,22449,.21307E-3,.5615E-4,0
ION SCV-006,2022-057AF,2026-06-11T23:37:38.741952,15.45161885,.00182602,97.6086,311.3578,131.2213,229.0613,0,U,52761,999,22531,.25622145E-3,.1213E-3,0
SHERPA-AC1,2022-057AH,2026-06-12T07:29:13.642080,15.36199457,.00089428,97.6673,312.3358,108.0344,252.1874,0,U,52763,999,22495,.22391742E-3,.7822E-4,0
OMNI-L2,2022-057AR,2026-06-12T04:35:55.147200,14.81358510,.00062309,97.4717,225.8856,354.9955,5.1196,0,U,52771,999,21965,.17500745E-3,.132E-4,0
STEP CUBE LAB-II,2022-065D,2026-06-12T19:52:21.567360,14.63297796,.0009598,98.2216,307.7434,44.8970,315.3007,0,U,52897,999,21086,.18957E-3,.93E-5,0
RANDEV,2022-065E,2026-06-12T19:55:34.146048,14.63684374,.0008899,98.2202,308.0953,45.5806,314.6123,0,U,52898,999,21061,.16829E-3,.828E-5,0
SNUGLITE-II,2022-065F,2026-06-12T20:42:32.670432,14.64340425,.0008259,98.2195,308.7012,45.3665,314.8210,0,U,52899,999,21036,.17689E-3,.886E-5,0
MIMAN,2022-065G,2026-06-12T04:31:28.396704,14.61839051,.00085002,98.2253,305.6963,48.9596,311.2338,0,U,52900,999,20971,.10932853E-3,.499E-5,0
STARLINK-4362,2022-077A,2026-06-12T05:09:17.948448,15.05652660,.00016,97.3716,342.3881,83.5172,276.6238,0,U,53043,999,21513,-.49482317E-4,-.771E-5,0
LARES-2,2022-080A,2026-06-11T09:04:16.246848,6.38965132,.0005423,70.1631,307.3215,335.1501,24.8749,0,U,53105,999,9129,0,-.14E-6,0
GREENCUBE (IO-117),2022-080E,2026-06-01T11:09:37.753056,6.42583280,.00088692,70.1435,303.7143,293.3663,66.6064,0,U,53109,999,9105,0,-.3E-7,0
STARLINK-4410,2022-084R,2026-06-12T20:00:01.999008,15.29344175,.0001745,97.6004,224.8172,84.1164,287.4060,0,U,53204,999,570,-.1961E-3,-.5648E-4,0
COSMOS 2558,2022-089A,2026-06-12T19:48:30.646080,15.74302000,.0000767,97.2259,267.7142,225.4822,134.6380,0,U,53323,999,21714,.74789E-3,.108613E-2,0
TECMS,2022-090A,2026-06-12T21:12:43.945344,15.21379052,.0002988,97.3145,232.1140,189.2479,170.8702,0,U,53346,999,21415,.18026E-3,.3974E-4,0
DONGPO 02,2022-098J,2026-06-11T21:38:04.668288,15.73578594,.00016895,97.5510,293.6368,288.8148,71.2933,0,U,53452,999,21396,.74197224E-3,.104426E-2,0
DONGPO 01,2022-098K,2026-06-12T20:09:33.490080,15.71699779,.0001519,97.5575,295.1924,239.1174,120.9939,0,U,53453,999,21407,.73796E-3,.95832E-3,0
STARLINK-4400,2022-099D,2026-06-12T20:36:27.595008,15.05450654,.000097,97.3675,283.0857,82.2752,277.8585,0,U,53468,999,21029,.28544E-2,.41145E-3,0
