{"_default": { "268": {"norad_id": "52761", "name": "ION SCV-006", "tle1": "1 52761U 22057AF  26162.98447618  .00012130  00000-0  25622-3 0  9998", "tle2": "2 52761  97.6086 311.3578 0018260 131.2213 229.0613 15.45161885225317", "object_type": "PAYLOAD", "criticality_score": 7.0, "last_updated": "2026-06-13T11:16:06.819600+00:00", "maneuver_count": 0, "owner": "IT"}, "275": {"norad_id": "52763", "name": "SHERPA-AC1", "tle1": "1 52763U 22057AH  26163.31196345  .00007822  00000-0  22392-3 0  9999", "tle2": "2 52763  97.6673 312.3358 0008943 108.0344 252.1874 15.36199457224953", "object_type": "PAYLOAD", "criticality_score": 7.0, "last_updated": "2026-06-13T11:16:06.819600+00:00", "maneuver_count": 0, "owner": "US"}, "279": {"norad_id": "52771", "name": "OMNI-L2", "tle1": "1 52771U 22057AR  26163.19161050  .00001320  00000-0  17501-3 0  9992", "tle2": "2 52771  97.4717 225.8856 0006231 354.9955   5.1196 14.81358510219658", "object_type": "PAYLOAD", "criticality_score": 7.0, "last_updated": "2026-06-13T11:16:06.819600+00:00", "maneuver_count": 0, "owner": "US"}, "280": {"norad_id": "52422", "name": "BRO-6", "tle1": "1 52422U 22047AE  26163.81348493  .00038609  00000-0  68147-3 0  9993", "tle2": "2 52422  97.3403 254.7853 0005401  93.1899 266.9971 15.50267026230476", "object_type": "PAYLOAD", "criticality_score": 7.0, "last_updated": "2026-06-13T11:16:06.819600+00:00", "maneuver_count": 0, "owner": "FR"}, "296": {"norad_id": "52897", "name": "STEP CUBE LAB-II", "tle1": "1 52897U 22065D   26163.82802740  .00000930  00000-0  18957-3 0  9990", "tle2": "2 52897  98.2216 307.7434 0009598  44.8970 315.3007 14.63297796210862", "object_type": "PAYLOAD", "criticality_score": 7.0, "last_updated": "2026-06-13T11:16:06.819600+00:00", "maneuver_count": 0, "owner": "SKOR"}, "297": {"norad_id": "52898", "name": "RANDEV", "tle1": "1 52898U 22065E   26163.83025632  .00000828  00000-0  16829-3 0  9991", "tle2": "2 52898  98.2202 308.0953 0008899  45.5806 314.6123 14.63684374210613", "object_type": "PAYLOAD", "criticality_score": 7.0, "last_updated": "2026-06-13T11:16:06.819600+00:00", "maneuver_count": 0, "owner": "SKOR"}, "298": {"norad_id": "52899", "name": "SNUGLITE-II", "tle1": "1 52899U 22065F   26163.86287813  .00000886  00000-0  17689-3 0  9995", "tle2": "2 52899  98.2195 308.7012 0008259  45.3665 314.8210 14.64340425210367", "object_type": "PAYLOAD", "criticality_score": 7.0, "last_updated": "2026-06-13T11:16:06.819600+00:00", "maneuver_count": 0, "owner": "SKOR"}, "301": {"norad_id": "52900", "name": "MIMAN", "tle1": "1 52900U 22065G   26163.18852311  .00000499  00000-0  10933-3 0  9999", "tle2": "2 52900  98.2253 305.6963 0008500  48.9596 311.2338 14.61839051209711", "object_type": "PAYLOAD", "criticality_score": 7.0, "last_updated": "2026-06-13T11:16:06.819600+00:00", "maneuver_count": 0, "owner": "SKOR"}, "308": {"norad_id": "53109", "name": "AVUM R/B", "tle1": "1 53109U 22080E   26152.46502029 -.00000003  00000-0  00000-0 0  9998", "tle2": "2 53109  70.1435 303.7143 0008869 293.3663  66.6064  6.42583280 91055", "object_type": "ROCKET_BODY", "criticality_score": 3.0, "last_updated": "2026-06-13T11:16:06.819600+00:00", "maneuver_count": 0, "owner": "IT"}, "313": {"norad_id": "53105", "name": "LARES-2", "tle1": "1 53105U 22080A   26162.37796582 -.00000014  00000-0  00000+0 0  9995", "tle2": "2 53105  70.1631 307.3215 0005423 335.1501  24.8749  6.38965132 91295", "object_type": "PAYLOAD", "criticality_score": 7.0, "last_updated": "2026-06-13T11:16:06.819600+00:00", "maneuver_count": 0, "owner": "IT"}, "314": {"norad_id": "52760", "name": "VIGORIDE 3", "tle1": "1 52760U 22057AE  26163.82693382  .00005615  00000-0  21307-3 0  9998", "tle2": "2 52760  97.6592 303.6859 0009392 133.7386 226.4631 15.27235873224496", "object_type": "PAYLOAD", "criticality_score": 7.0, "last_updated": "2026-06-13T11:16:06.819600+00:00", "maneuver_count": 0, "owner": "US"}, "325": {"norad_id": "52157", "name": "OMNI-L1", "tle1": "1 52157U 22033A   26163.79241534  .00001931  00000-0  24558-3 0  9994", "tle2": "2 52157  97.8397 243.0550 0003956 307.8039  52.2816 14.82734370226808", "object_type": "PAYLOAD", "criticality_score": 7.0, "last_updated": "2026-06-13T11:16:06.819600+00:00", "maneuver_count": 0, "owner": "US"}, "329": {"norad_id": "53204", "name": "STARLINK-4410", "tle1": "1 53204U 22084R   26163.83335647 -.00005648  00000-0 -19610-3 0  9992", "tle2": "2 53204  97.6004 224.8172 0001745  84.1164 287.4060 15.29344175  5709", "object_type": "PAYLOAD", "criticality_score": 8.0, "last_updated": "2026-06-13T11:16:06.819600+00:00", "maneuver_count": 0, "owner": "US"}, "330": {"norad_id": "53468", "name": "STARLINK-4400", "tle1": "1 53468U 22099D   26163.85865272  .00041145  00000-0  28544-2 0  9999", "tle2": "2 53468  97.3675 283.0857 0000970  82.2752 277.8585 15.05450654210291", "object_type": "PAYLOAD", "criticality_score": 8.0, "last_updated": "2026-06-13T11:16:06.819600+00:00", "maneuver_count": 0, "owner": "US"}, "332": {"norad_id": "53043", "name": "STARLINK-4362", "tle1": "1 53043U 22077A   26163.21479107 -.00000771  00000-0 -49482-4 0  9990", "tle2": "2 53043  97.3716 342.3881 0001600  83.5172 276.6238 15.05652660215134", "object_type": "PAYLOAD", "criticality_score": 8.0, "last_updated": "2026-06-13T11:16:06.819600+00:00", "maneuver_count": 0, "owner": "US"}, "338": {"norad_id": "51827", "name": "OBJECT D", "tle1": "1 51827U 22019D   26163.85518323  .00080742  00000-0  65599-3 0  9998", "tle2": "2 51827  97.3670 256.1054 0005527 155.1956 204.9573 15.70444850239025", "object_type": "PAYLOAD", "criticality_score": 7.0, "last_updated": "2026-06-13T11:16:06.819600+00:00", "maneuver_count": 0, "owner": "PRC"}, "402": {"norad_id": "52085", "name": "CZ-4C R/B", "tle1": "1 52085U 22027B   26163.84148470 -.00000064  00000-0  32087-4 0  9992", "tle2": "2 52085  63.3943  70.4930 0232177  22.6416 338.4664 13.65479860211441", "object_type": "ROCKET_BODY", "criticality_score": 3.0, "last_updated": "2026-06-13T11:16:06.819600+00:00", "maneuver_count": 0, "owner": "PRC"}, "426": {"norad_id": "52161", "name": "ARCSAT-1", "tle1": "1 52161U 22033E   26163.23033586  .00013928  00000-0  22070-3 0  9990", "tle2": "2 52161  97.2756 255.4301 0004447 198.4115 161.6978 15.53509655234934", "object_type": "PAYLOAD", "criticality_score": 7.0, "last_updated": "2026-06-13T11:16:06.819600+00:00", "maneuver_count": 0, "owner": "NOR"}, "430": {"norad_id": "51832", "name": "OBJECT J", "tle1": "1 51832U 22019J   26163.86288137  .00000635  00000-0  32217-4 0  9997", "tle2": "2 51832  97.3436 226.7847 0007055 239.3909 120.6632 15.20417387237146", "object_type": "PAYLOAD", "criticality_score": 7.0, "last_updated": "2026-06-13T11:16:06.819600+00:00", "maneuver_count": 0, "owner": "PRC"}, "439": {"norad_id": "52196", "name": "GLOBAL-18", "tle1": "1 52196U 22034B   26162.63133447  .00022262  00000-0  45571-3 0  9991", "tle2": "2 52196  52.9819 283.1883 0003087 249.2112 110.8562 15.46043673236105", "object_type": "PAYLOAD", "criticality_score": 7.0, "last_updated": "2026-06-13T11:16:06.819600+00:00", "maneuver_count": 0, "owner": "US"}, "441": {"norad_id": "53346", "name": "OBJECT A", "tle1": "1 53346U 22090A   26163.88384196  .00003974  00000-0  18026-3 0  9992", "tle2": "2 53346  97.3145 232.1140 0002988 189.2479 170.8702 15.21379052214155", "object_type": "PAYLOAD", "criticality_score": 7.0, "last_updated": "2026-06-13T11:16:06.819600+00:00", "maneuver_count": 0, "owner": "PRC"}, "452": {"norad_id": "53452", "name": "OBJECT J", "tle1": "1 53452U 22098J   26162.90144292  .00104426  00000-0  74197-3 0  9996", "tle2": "2 53452  97.5510 293.6368 0001689 288.8148  71.2933 15.73578594213968", "object_type": "PAYLOAD", "criticality_score": 7.0, "last_updated": "2026-06-13T11:16:06.819600+00:00", "maneuver_count": 0, "owner": "PRC"}, "454": {"norad_id": "53453", "name": "OBJECT K", "tle1": "1 53453U 22098K   26163.83997095  .00095832  00000-0  73796-3 0  9991", "tle2": "2 53453  97.5575 295.1924 0001519 239.1174 120.9939 15.71699779214073", "object_type": "PAYLOAD", "criticality_score": 7.0, "last_updated": "2026-06-13T11:16:06.819600+00:00", "maneuver_count": 0, "owner": "PRC"}, "456": {"norad_id": "52445", "name": "JILIN-01 GAOFEN 3D 28", "tle1": "1 52445U 22048C   26163.84197139  .00140100  00000-0  84487-3 0  9996", "tle2": "2 52445  97.5641 277.5192 0000863 152.6057 207.5254 15.77261312228844", "object_type": "PAYLOAD", "criticality_score": 7.0, "last_updated": "2026-06-13T11:16:06.819600+00:00", "maneuver_count": 0, "owner": "PRC"}, "457": {"norad_id": "52444", "name": "JILIN-01 GAOFEN 3D 27", "tle1": "1 52444U 22048B   26163.83445529  .00115557  00000-0  79260-3 0  9994", "tle2": "2 52444  97.5704 277.3785 0001473  63.2043 296.9372 15.74370663228793", "object_type": "PAYLOAD", "criticality_score": 7.0, "last_updated": "2026-06-13T11:16:06.819600+00:00", "maneuver_count": 0, "owner": "PRC"}, "483": {"norad_id": "52159", "name": "ENMAP", "tle1": "1 52159U 22033C   26163.82383280  .00000240  00000-0  43081-4 0  9990", "tle2": "2 52159  97.9792 246.1355 0001386  82.6492 277.4875 14.74983994226011", "object_type": "PAYLOAD", "criticality_score": 7.0, "last_updated": "2026-06-13T11:16:06.819600+00:00", "maneuver_count": 0, "owner": "GER"}, "484": {"norad_id": "51951", "name": "OBJECT F", "tle1": "1 51951U 22023F   26163.86252637  .00015451  00000-0  61529-3 0  9999", "tle2": "2 51951  63.4453 288.1826 0129491 342.5795  17.0894 15.17978616237051", "object_type": "PAYLOAD", "criticality_score": 7.0, "last_updated": "2026-06-13T11:16:06.819600+00:00", "maneuver_count": 0, "owner": "PRC"}, "513": {"norad_id": "52257", "name": "DAQI 1", "tle1": "1 52257U 22039A   26163.88949948  .00000138  00000-0  40193-4 0  9997", "tle2": "2 52257  98.1477 102.8300 0002285 275.2770  84.8168 14.57674831221310", "object_type": "PAYLOAD", "criticality_score": 7.0, "last_updated": "2026-06-13T11:16:06.819600+00:00", "maneuver_count": 0, "owner": "PRC"}, "569": {"norad_id": "53323", "name": "COSMOS 2558", "tle1": "1 53323U 22089A   26163.82535470  .00108613  00000-0  74789-3 0  9996", "tle2": "2 53323  97.2259 267.7142 0000767 225.4822 134.6380 15.74302000217148", "object_type": "PAYLOAD", "criticality_score": 7.0, "last_updated": "2026-06-13T11:16:06.819600+00:00", "maneuver_count": 0, "owner": "CIS"}, "577": {"norad_id": "52200", "name": "GAOFEN 3 03", "tle1": "1 52200U 22035A   26163.85885689 -.00000117  00000-0 -22473-4 0  9999", "tle2": "2 52200  98.4063 172.5016 0001207 101.6579 258.4747 14.42214036220224", "object_type": "PAYLOAD", "criticality_score": 7.0, "last_updated": "2026-06-13T11:16:06.819600+00:00", "maneuver_count": 0, "owner": "PRC"}, "662": {"norad_id": "52145", "name": "MERIDIAN 10", "tle1": "1 52145U 22030A   26162.48709860  .00000240  00000-0  00000-0 0  9999", "tle2": "2 52145  62.6777 141.4098 6782176 272.8584  17.6673  2.00614267 30915", "object_type": "PAYLOAD", "criticality_score": 7.0, "last_updated": "2026-06-13T11:16:06.819600+00:00", "maneuver_count": 0, "owner": "CIS"}}}